IRIDIUM 921 [-]         
1 24873U 97034E   23268.47983821  .00024615  00000+0  97346-3 0  9999
2 24873  86.3853  57.9950 0005782 164.7191 195.4231 15.25337546434518
IRIDIUM 26 [-]          
1 24903U 97043A   23268.59779880  .00000739  00000+0  24792-3 0  9990
2 24903  86.4018  15.1679 0002203  87.7543 272.3906 14.36006494366211
IRIDIUM 22 [-]          
1 24907U 97043E   23268.58923859  .00000742  00000+0  25431-3 0  9995
2 24907  86.4019  18.1957 0002147  93.6162 266.5280 14.34914613366318
DUMMY MASS 1 [-]        
1 24925U 97048A   23268.47900044  .00000907  00000+0  10112-3 0  9992
2 24925  86.3311  66.6989 0005639 202.8494 157.2481 14.85832845411442
DUMMY MASS 2 [-]        
1 24926U 97048B   23268.47271280  .00000890  00000+0  99735-4 0  9996
2 24926  86.3309  68.1994 0006039 218.0610 142.0188 14.85594325411238
IRIDIUM 29 [-]          
1 24944U 97051A   23268.46717165  .00000694  00000+0  23525-3 0  9991
2 24944  86.3957  48.2328 0002201  97.2478 262.8968 14.35376797362769
IRIDIUM 33 [-]          
1 24946U 97051C   23268.46289392  .00000631  00000+0  21860-3 0  9990
2 24946  86.3874  47.5128 0007270 351.5063   8.6009 14.34116393362323
IRIDIUM 28 [-]          
1 24948U 97051E   23268.43673207  .00000907  00000+0  30381-3 0  9995
2 24948  86.3967  46.1236 0002047  80.4415 279.7013 14.36300453363274
